{
  "norad_id": 65903,
  "name": "STARLINK-35210",
  "history": [
    {
      "epoch": "2026-04-11T16:51:32.592384Z",
      "apogee_km": 475.30389030126935,
      "perigee_km": 475.01742245923197,
      "latitude_deg": -1.0161469622352965e-05,
      "longitude_deg": 125.55673576202295,
      "height_km": 476.09038435779513,
      "semi_major_axis_km": 6853.29765638025,
      "eccentricity": 2.09e-05,
      "inclination_deg": 53.1589,
      "raan_deg": 218.3607,
      "arg_perigee_deg": 102.2455,
      "mean_anomaly_deg": 257.8569,
      "mean_motion_rev_day": 15.30218224
    },
    {
      "epoch": "2026-04-13T06:28:49.597536Z",
      "apogee_km": 475.27969420949194,
      "perigee_km": 475.1394747383729,
      "latitude_deg": 1.2367181753497717e-05,
      "longitude_deg": -87.59195866698599,
      "height_km": 476.1538152630317,
      "semi_major_axis_km": 6853.346584473932,
      "eccentricity": 1.023e-05,
      "inclination_deg": 53.1626,
      "raan_deg": 211.0779,
      "arg_perigee_deg": 129.233,
      "mean_anomaly_deg": 230.868,
      "mean_motion_rev_day": 15.30201837
    },
    {
      "epoch": "2026-04-14T13:49:53.565024Z",
      "apogee_km": 475.74976045046424,
      "perigee_km": 474.6929725903474,
      "latitude_deg": 1.3412557628581695e-05,
      "longitude_deg": 154.78496820153856,
      "height_km": 476.0841902613588,
      "semi_major_axis_km": 6853.358366520406,
      "eccentricity": 7.71e-05,
      "inclination_deg": 53.1581,
      "raan_deg": 205.0089,
      "arg_perigee_deg": 86.1244,
      "mean_anomaly_deg": 273.9845,
      "mean_motion_rev_day": 15.30197891
    },
    {
      "epoch": "2026-04-15T13:20:41.272800Z",
      "apogee_km": 476.03979214478204,
      "perigee_km": 474.41170728995894,
      "latitude_deg": -4.437933697400253e-06,
      "longitude_deg": 156.5739193004907,
      "height_km": 476.3149669494355,
      "semi_major_axis_km": 6853.36274971737,
      "eccentricity": 0.00011878,
      "inclination_deg": 53.1585,
      "raan_deg": 200.4623,
      "arg_perigee_deg": 103.5808,
      "mean_anomaly_deg": 256.5325,
      "mean_motion_rev_day": 15.30196423
    },
    {
      "epoch": "2026-04-16T12:51:29.401344Z",
      "apogee_km": 475.855032155976,
      "perigee_km": 474.57482601562333,
      "latitude_deg": 6.875502415712285e-05,
      "longitude_deg": 158.35738038311342,
      "height_km": 476.18134793798674,
      "semi_major_axis_km": 6853.351929085799,
      "eccentricity": 9.34e-05,
      "inclination_deg": 53.1589,
      "raan_deg": 195.9119,
      "arg_perigee_deg": 96.0994,
      "mean_anomaly_deg": 264.0114,
      "mean_motion_rev_day": 15.30200047
    },
    {
      "epoch": "2026-04-17T12:22:17.152320Z",
      "apogee_km": 475.91768391696587,
      "perigee_km": 474.57620254391713,
      "latitude_deg": 3.1289628714892497e-05,
      "longitude_deg": 160.14213609687096,
      "height_km": 476.1905074736188,
      "semi_major_axis_km": 6853.383943230441,
      "eccentricity": 9.787e-05,
      "inclination_deg": 53.1591,
      "raan_deg": 191.3613,
      "arg_perigee_deg": 93.8639,
      "mean_anomaly_deg": 266.2474,
      "mean_motion_rev_day": 15.30189325
    },
    {
      "epoch": "2026-04-18T11:53:04.881696Z",
      "apogee_km": 475.8009288073299,
      "perigee_km": 474.47139381403576,
      "latitude_deg": -1.9246093202919986e-05,
      "longitude_deg": 161.92317140140275,
      "height_km": 475.86701917441144,
      "semi_major_axis_km": 6853.273161310683,
      "eccentricity": 9.7e-05,
      "inclination_deg": 53.1589,
      "raan_deg": 186.8069,
      "arg_perigee_deg": 75.4005,
      "mean_anomaly_deg": 284.7103,
      "mean_motion_rev_day": 15.30226428
    },
    {
      "epoch": "2026-04-19T11:23:53.075040Z",
      "apogee_km": 477.0525464117054,
      "perigee_km": 473.7024114641108,
      "latitude_deg": -4.069723343006697e-05,
      "longitude_deg": 163.7056887256338,
      "height_km": 475.8827536983973,
      "semi_major_axis_km": 6853.514478937907,
      "eccentricity": 0.00024441,
      "inclination_deg": 53.1596,
      "raan_deg": 182.2559,
      "arg_perigee_deg": 283.704,
      "mean_anomaly_deg": 76.3688,
      "mean_motion_rev_day": 15.30145608
    },
    {
      "epoch": "2026-04-20T10:54:42.265440Z",
      "apogee_km": 476.130882067735,
      "perigee_km": 474.40519467907325,
      "latitude_deg": 4.308679414292718e-06,
      "longitude_deg": 165.48458872486833,
      "height_km": 476.18436267453006,
      "semi_major_axis_km": 6853.405038373404,
      "eccentricity": 0.0001259,
      "inclination_deg": 53.1593,
      "raan_deg": 177.7054,
      "arg_perigee_deg": 91.2164,
      "mean_anomaly_deg": 268.8981,
      "mean_motion_rev_day": 15.3018226
    },
    {
      "epoch": "2026-04-21T08:51:26.470368Z",
      "apogee_km": 476.03444980052154,
      "perigee_km": 474.2601344972845,
      "latitude_deg": 4.457704552518949e-05,
      "longitude_deg": -168.84724492397783,
      "height_km": 475.9661993027528,
      "semi_major_axis_km": 6853.284292148903,
      "eccentricity": 0.00012945,
      "inclination_deg": 53.1591,
      "raan_deg": 173.459,
      "arg_perigee_deg": 84.888,
      "mean_anomaly_deg": 275.2269,
      "mean_motion_rev_day": 15.302227
    },
    {
      "epoch": "2026-04-22T08:22:13.743552Z",
      "apogee_km": 476.079425444319,
      "perigee_km": 474.2786481224939,
      "latitude_deg": 3.6613546691044095e-05,
      "longitude_deg": -167.06757495096383,
      "height_km": 476.5537531903941,
      "semi_major_axis_km": 6853.316036783406,
      "eccentricity": 0.00013138,
      "inclination_deg": 53.1579,
      "raan_deg": 168.9013,
      "arg_perigee_deg": 121.9649,
      "mean_anomaly_deg": 238.148,
      "mean_motion_rev_day": 15.30212068
    },
    {
      "epoch": "2026-04-23T09:27:05.117472Z",
      "apogee_km": 476.3036445579728,
      "perigee_km": 474.1189341902855,
      "latitude_deg": 5.617306197078144e-05,
      "longitude_deg": 170.83784184921578,
      "height_km": 476.2738026127223,
      "semi_major_axis_km": 6853.348289374128,
      "eccentricity": 0.00015939,
      "inclination_deg": 53.1589,
      "raan_deg": 164.0508,
      "arg_perigee_deg": 98.6874,
      "mean_anomaly_deg": 261.4308,
      "mean_motion_rev_day": 15.30201266
    },
    {
      "epoch": "2026-04-24T12:05:59.102592Z",
      "apogee_km": 475.78785781850274,
      "perigee_km": 474.62278962347136,
      "latitude_deg": 2.2203721274982334e-06,
      "longitude_deg": 124.86275412673973,
      "height_km": 476.3866703324691,
      "semi_major_axis_km": 6853.342323720987,
      "eccentricity": 8.5e-05,
      "inclination_deg": 53.1601,
      "raan_deg": 158.8951,
      "arg_perigee_deg": 119.0162,
      "mean_anomaly_deg": 241.0924,
      "mean_motion_rev_day": 15.30203264
    },
    {
      "epoch": "2026-04-25T19:27:03.247200Z",
      "apogee_km": 476.19265746982546,
      "perigee_km": 474.2257471097673,
      "latitude_deg": -2.317875787350474e-05,
      "longitude_deg": 7.23741947734236,
      "height_km": 475.7569605825812,
      "semi_major_axis_km": 6853.346202289796,
      "eccentricity": 0.0001435,
      "inclination_deg": 53.1601,
      "raan_deg": 152.8246,
      "arg_perigee_deg": 69.1371,
      "mean_anomaly_deg": 290.9783,
      "mean_motion_rev_day": 15.30201965
    },
    {
      "epoch": "2026-04-26T18:57:51.333408Z",
      "apogee_km": 476.2830809723109,
      "perigee_km": 474.1308568323175,
      "latitude_deg": 1.3441108888157133e-05,
      "longitude_deg": 9.02312871856155,
      "height_km": 475.8860445792021,
      "semi_major_axis_km": 6853.3439689023135,
      "eccentricity": 0.00015702,
      "inclination_deg": 53.159,
      "raan_deg": 148.2763,
      "arg_perigee_deg": 78.2836,
      "mean_anomaly_deg": 281.8341,
      "mean_motion_rev_day": 15.30202713
    },
    {
      "epoch": "2026-04-27T18:28:39.163008Z",
      "apogee_km": 475.9554927458239,
      "perigee_km": 474.4737981200806,
      "latitude_deg": -1.4768989929474907e-05,
      "longitude_deg": 10.810062105454325,
      "height_km": 475.86213322518415,
      "semi_major_axis_km": 6853.351645432952,
      "eccentricity": 0.0001081,
      "inclination_deg": 53.1565,
      "raan_deg": 143.7282,
      "arg_perigee_deg": 70.2323,
      "mean_anomaly_deg": 289.8794,
      "mean_motion_rev_day": 15.30200142
    },
    {
      "epoch": "2026-04-28T17:59:26.696256Z",
      "apogee_km": 476.01557759846764,
      "perigee_km": 474.31047655173097,
      "latitude_deg": -6.221527960755674e-06,
      "longitude_deg": 12.589961032584915,
      "height_km": 475.40297346430316,
      "semi_major_axis_km": 6853.300027075099,
      "eccentricity": 0.0001244,
      "inclination_deg": 53.156,
      "raan_deg": 139.1718,
      "arg_perigee_deg": 39.4459,
      "mean_anomaly_deg": 320.6632,
      "mean_motion_rev_day": 15.3021743
    },
    {
      "epoch": "2026-04-29T08:05:53.787840Z",
      "apogee_km": 475.77441329088833,
      "perigee_km": 474.31550791511563,
      "latitude_deg": -5.509273171786893e-05,
      "longitude_deg": 157.66856779836743,
      "height_km": 475.81286356869936,
      "semi_major_axis_km": 6853.181960603002,
      "eccentricity": 0.00010644,
      "inclination_deg": 53.1569,
      "raan_deg": 136.4427,
      "arg_perigee_deg": 79.7203,
      "mean_anomaly_deg": 280.3917,
      "mean_motion_rev_day": 15.30256974
    },
    {
      "epoch": "2026-04-30T07:36:42.937632Z",
      "apogee_km": 475.77605365920044,
      "perigee_km": 474.7340639305812,
      "latitude_deg": 2.980571337672451e-05,
      "longitude_deg": 159.44776887581955,
      "height_km": 476.18435111834174,
      "semi_major_axis_km": 6853.3920587948905,
      "eccentricity": 7.602e-05,
      "inclination_deg": 53.1561,
      "raan_deg": 131.8923,
      "arg_perigee_deg": 93.4072,
      "mean_anomaly_deg": 266.7016,
      "mean_motion_rev_day": 15.30186607
    }
  ]
}